NORAD_CAT_ID,OBJECT_NAME,OBJECT_TYPE,EPOCH,MEAN_MOTION,ECCENTRICITY,INCLINATION,RA_OF_ASC_NODE,ARG_OF_PERICENTER,MEAN_ANOMALY,BSTAR,MEAN_MOTION_DOT,MEAN_MOTION_DDOT,TLE_LINE0,TLE_LINE1,TLE_LINE2,SEMIMAJOR_AXIS,PERIOD,APOGEE,PERIGEE,DECAYED
55927.0,STARLINK-5919,PAYLOAD,2024-03-25 01:12:57,14.98342407,0.0002917,69.9986,306.2154,266.9651,93.1174,0.00033247,3.877e-05,0.0,0 STARLINK-5919,1 55927U 23037P   24085.05066521  .00003877  00000-0  33247-3 0  9994,2 55927  69.9986 306.2154 0002917 266.9651  93.1174 14.98342407 56785,6950.155,96.106,574.047,569.992,0.0
55927.0,STARLINK-5919,PAYLOAD,2024-03-25 12:25:55,14.98319253,0.0003441,69.9984,305.0339,268.8918,91.1847,-0.00012403,-1.572e-05,0.0,0 STARLINK-5919,1 55927U 23037P   24085.51800484 -.00001572  00000-0 -12403-3 0  9992,2 55927  69.9984 305.0339 0003441 268.8918  91.1847 14.98319253 56851,6950.226,96.108,574.483,569.7,0.0
55927.0,STARLINK-5919,PAYLOAD,2024-03-25 20:26:32,14.98368131,0.0003141,69.9989,304.1948,262.6116,97.4686,0.00030151,3.51e-05,0.0,0 STARLINK-5919,1 55927U 23037P   24085.85176410  .00003510  00000-0  30151-3 0  9996,2 55927  69.9989 304.1948 0003141 262.6116  97.4686 14.98368131 56906,6950.075,96.105,574.123,569.757,0.0
55927.0,STARLINK-5919,PAYLOAD,2024-03-25 22:02:40,14.98364478,0.0002923,69.999,304.0265,256.7809,103.3024,0.00029432,3.424e-05,0.0,0 STARLINK-5919,1 55927U 23037P   24085.91852501  .00003424  00000-0  29432-3 0  9999,2 55927  69.9990 304.0265 0002923 256.7809 103.3024 14.98364478 56575,6950.086,96.105,573.983,569.92,0.0
55927.0,STARLINK-5919,PAYLOAD,2024-03-26 07:39:29,14.98352087,0.0003048,70.0002,303.0154,272.3698,87.7112,0.0001194,1.333e-05,0.0,0 STARLINK-5919,1 55927U 23037P   24086.31909054  .00001333  00000-0  11940-3 0  9992,2 55927  70.0002 303.0154 0003048 272.3698  87.7112 14.98352087 56977,6950.125,96.106,574.108,569.871,0.0
55927.0,STARLINK-5919,PAYLOAD,2024-03-26 20:28:36,14.98315423,0.0002909,69.9982,301.6702,263.4853,96.5975,-0.00026498,-3.252e-05,0.0,0 STARLINK-5919,1 55927U 23037P   24086.85320357 -.00003252  00000-0 -26498-3 0  9992,2 55927  69.9982 301.6702 0002909 263.4853  96.5975 14.98315423 57051,6950.238,96.108,574.125,570.081,0.0
55927.0,STARLINK-5919,PAYLOAD,2024-03-26 22:04:44,14.98315557,0.0002872,69.9983,301.5018,263.7384,96.3448,-0.00025646,-3.15e-05,0.0,0 STARLINK-5919,1 55927U 23037P   24086.91996378 -.00003150  00000-0 -25646-3 0  9992,2 55927  69.9983 301.5018 0002872 263.7384  96.3448 14.98315557 56726,6950.238,96.108,574.099,570.106,0.0
55927.0,STARLINK-5919,PAYLOAD,2024-03-27 07:41:32,14.98325105,0.0002909,69.9983,300.4912,275.3152,84.7675,-0.00021705,-2.681e-05,0.0,0 STARLINK-5919,1 55927U 23037P   24087.32051973 -.00002681  00000-0 -21705-3 0  9991,2 55927  69.9983 300.4912 0002909 275.3152  84.7675 14.98325105 57128,6950.208,96.107,574.095,570.051,0.0
55927.0,STARLINK-5919,PAYLOAD,2024-03-27 14:06:04,14.98318182,0.0003202,69.9981,299.8182,266.8359,93.2433,7.1793e-05,7.63e-06,0.0,0 STARLINK-5919,1 55927U 23037P   24087.58755711  .00000763  00000-0  71793-4 0  9990,2 55927  69.9981 299.8182 0003202 266.8359  93.2433 14.98318182 56827,6950.229,96.108,574.32,569.869,0.0
55927.0,STARLINK-5919,PAYLOAD,2024-03-27 22:06:45,14.98324237,0.0003296,69.9981,298.9761,269.5223,90.5558,0.00013263,1.49e-05,0.0,0 STARLINK-5919,1 55927U 23037P   24087.92135519  .00001490  00000-0  13263-3 0  9991,2 55927  69.9981 298.9761 0003296 269.5223  90.5558 14.98324237 56874,6950.211,96.107,574.367,569.785,0.0
55927.0,STARLINK-5919,PAYLOAD,2024-03-27 23:42:53,14.98325571,0.0003234,69.9981,298.8079,268.0754,92.0034,0.00015278,1.73e-05,0.0,0 STARLINK-5919,1 55927U 23037P   24087.98811473  .00001730  00000-0  15278-3 0  9992,2 55927  69.9981 298.8079 0003234 268.0754  92.0034 14.98325571 57228,6950.207,96.107,574.319,569.824,0.0
55927.0,STARLINK-5919,PAYLOAD,2024-03-28 12:31:57,14.98319155,0.0003036,69.998,297.4609,267.9443,92.1368,0.00042418,4.97e-05,0.0,0 STARLINK-5919,1 55927U 23037P   24088.52219541  .00004970  00000-0  42418-3 0  9996,2 55927  69.9980 297.4609 0003036 267.9443  92.1368 14.98319155 56966,6950.226,96.108,574.202,569.981,0.0
55927.0,STARLINK-5919,PAYLOAD,2024-03-28 22:08:46,14.98328984,0.0003075,69.9991,296.4512,268.8843,91.1963,0.00057363,6.758e-05,0.0,0 STARLINK-5919,1 55927U 23037P   24088.92275719  .00006758  00000-0  57363-3 0  9990,2 55927  69.9991 296.4512 0003075 268.8843  91.1963 14.98328984 57025,6950.196,96.107,574.198,569.924,0.0
55927.0,STARLINK-5919,PAYLOAD,2024-03-28 23:44:54,14.98333642,0.0003055,69.9991,296.2828,269.242,90.8389,0.00053181,6.259e-05,0.0,0 STARLINK-5919,1 55927U 23037P   24088.98951537  .00006259  00000-0  53181-3 0  9995,2 55927  69.9991 296.2828 0003055 269.2420  90.8389 14.98333642 57370,6950.182,96.107,574.17,569.923,0.0
55927.0,STARLINK-5919,PAYLOAD,2024-03-29 22:10:45,14.98358768,0.0001983,69.999,293.9216,296.7298,63.3658,0.00060717,7.164e-05,0.0,0 STARLINK-5919,1 55927U 23037P   24089.92414075  .00007164  00000-0  60717-3 0  9990,2 55927  69.9990 293.9216 0001983 296.7298  63.3658 14.98358768 57178,6950.104,96.105,573.347,570.591,0.0
55927.0,STARLINK-5919,PAYLOAD,2024-03-29 23:46:50,14.98489058,0.0003849,70.0003,293.7578,268.2976,91.7742,0.0042519,0.00051225,0.0,0 STARLINK-5919,1 55927U 23037P   24089.99086435  .00051225  00000-0  42519-2 0  9998,2 55927  70.0003 293.7578 0003849 268.2976  91.7742 14.98489058 57520,6949.701,96.097,574.241,568.891,0.0
55927.0,STARLINK-5919,PAYLOAD,2024-03-30 12:36:02,14.97988209,1.31e-05,69.9995,292.4072,291.4761,68.6384,-0.011759,-0.00136468,0.0,0 STARLINK-5919,1 55927U 23037P   24090.52502773 -.00136468  00000-0 -11759-1 0  9993,2 55927  69.9995 292.4072 0000131 291.4761  68.6384 14.97988209 57608,6951.25,96.129,573.206,573.024,0.0
55927.0,STARLINK-5919,PAYLOAD,2024-03-30 14:11:13,14.99651365,0.0006155,69.9968,292.2362,257.0166,103.0307,0.030824,0.00403226,0.0,0 STARLINK-5919,1 55927U 23037P   24090.59113342  .00403226  00000-0  30824-1 0  9991,2 55927  69.9968 292.2362 0006155 257.0166 103.0307 14.99651365 57271,6946.11,96.022,572.25,563.699,0.0
55927.0,STARLINK-5919,PAYLOAD,2024-03-30 22:00:00,14.99116824,0.0003222,69.9998,291.4199,274.1286,40.4443,0.0026035,0.00031755,0.0,0 STARLINK-5919,1 55927U 23037P   24090.91667824  .00031755  00000-0  26035-2 0  9990,2 55927  69.9998 291.4199 0003222 274.1286  40.4443 14.99116824 57662,6947.761,96.057,571.864,567.387,0.0
55927.0,STARLINK-5919,PAYLOAD,2024-03-31 14:00:01,14.9914918,0.0003154,70.0,289.7368,267.1653,44.2783,3.7391e-05,3.62e-06,0.0,0 STARLINK-5919,1 55927U 23037P   24091.58334491  .00000362  00000-0  37391-4 0  9994,2 55927  70.0000 289.7368 0003154 267.1653  44.2783 14.99149180 57762,6947.661,96.054,571.717,567.335,0.0
55927.0,STARLINK-5919,PAYLOAD,2024-03-31 22:00:00,14.99130505,0.0003116,70.0,288.895,273.5459,36.3632,0.00094402,0.00011425,0.0,0 STARLINK-5919,1 55927U 23037P   24091.91667824  .00011425  00000-0  94402-3 0  9997,2 55927  70.0000 288.8950 0003116 273.5459  36.3632 14.99130505  5783,6947.718,96.056,571.748,567.419,0.0
55927.0,STARLINK-5919,PAYLOAD,2024-04-01 06:00:00,14.99138052,0.0003079,69.9998,288.0534,270.225,38.1307,-0.0017849,-0.00021774,0.0,0 STARLINK-5919,1 55927U 23037P   24092.25001157 -.00021774  00000-0 -17849-2 0  9995,2 55927  69.9998 288.0534 0003079 270.2250  38.1307 14.99138052 57867,6947.695,96.055,571.699,567.421,0.0
55927.0,STARLINK-5919,PAYLOAD,2024-04-01 14:00:01,14.99149524,0.0003116,70.0001,287.212,266.2057,40.5834,-0.00043223,-5.358e-05,0.0,0 STARLINK-5919,1 55927U 23037P   24092.58334491 -.00005358  00000-0 -43223-3 0  9997,2 55927  70.0001 287.2120 0003116 266.2057  40.5834 14.99149524  5736,6947.66,96.054,571.69,567.36,0.0
55927.0,STARLINK-5919,PAYLOAD,2024-04-01 22:00:00,14.99124462,0.0003116,70.0,286.3703,272.6675,32.5859,0.0024544,0.00029929,0.0,0 STARLINK-5919,1 55927U 23037P   24092.91667824  .00029929  00000-0  24544-2 0  9995,2 55927  70.0000 286.3703 0003116 272.6675  32.5859 14.99124462 57963,6947.737,96.056,571.767,567.437,0.0
55927.0,STARLINK-5919,PAYLOAD,2024-04-02 14:00:01,14.99159761,0.000317,70.0,284.6872,266.0961,36.0519,-0.00090318,-0.00011087,0.0,0 STARLINK-5919,1 55927U 23037P   24093.58334491 -.00011087  00000-0 -90318-3 0  9991,2 55927  70.0000 284.6872 0003170 266.0961  36.0519 14.99159761 58060,6947.628,96.054,571.696,567.291,0.0
55927.0,STARLINK-5919,PAYLOAD,2024-04-02 22:00:01,14.9913097,0.0003178,69.9998,283.8456,272.7098,27.9739,0.0016975,0.00020647,0.0,0 STARLINK-5919,1 55927U 23037P   24093.91668981  .00020647  00000-0  16975-2 0  9998,2 55927  69.9998 283.8456 0003178 272.7098  27.9739 14.99130970  5780,6947.717,96.056,571.79,567.374,0.0
55927.0,STARLINK-5919,PAYLOAD,2024-04-03 12:40:37,14.9914127,0.0003126,69.9979,282.3019,268.8507,91.2294,0.00016792,1.953e-05,0.0,0 STARLINK-5919,1 55927U 23037P   24094.52821540  .00001953  00000-0  16792-3 0  9995,2 55927  69.9979 282.3019 0003126 268.8507  91.2294 14.99141270 57863,6947.685,96.055,571.722,567.378,0.0
55927.0,STARLINK-5919,PAYLOAD,2024-04-03 19:04:57,14.99143239,0.0003144,69.9979,281.6282,269.243,90.8369,0.00015925,1.847e-05,0.0,0 STARLINK-5919,1 55927U 23037P   24094.79511022  .00001847  00000-0  15925-3 0  9994,2 55927  69.9979 281.6282 0003144 269.2430  90.8369 14.99143239 58245,6947.679,96.055,571.729,567.36,0.0
55927.0,STARLINK-5919,PAYLOAD,2024-04-03 22:17:07,14.99143583,0.0003146,69.9979,281.2913,269.2896,90.7903,0.00015682,1.818e-05,0.0,0 STARLINK-5919,1 55927U 23037P   24094.92855791  .00001818  00000-0  15682-3 0  9991,2 55927  69.9979 281.2913 0003146 269.2896  90.7903 14.99143583 57929,6947.678,96.055,571.729,567.357,0.0
55927.0,STARLINK-5919,PAYLOAD,2024-04-04 14:17:57,14.99141617,0.0003115,69.9978,279.6064,269.4717,90.6085,8.6818e-05,9.64e-06,0.0,0 STARLINK-5919,1 55927U 23037P   24095.59579865  .00000964  00000-0  86818-4 0  9991,2 55927  69.9978 279.6064 0003115 269.4717  90.6085 14.99141617 58024,6947.684,96.055,571.713,567.385,0.0
